{
  "type": "FeatureCollection",
  "features": [
    {
      "type": "Feature",
      "properties": {
        "norad_id": 30996,
        "name": "FENGYUN 1C DEB",
        "group": "fengyun-1c-debris",
        "lat": 44.67113116404038,
        "lon": -107.2335350469425,
        "alt_km": 797.6818246063303,
        "timestamp": "2025-12-22T09:53:37.681391+00:00",
        "meta_object_name": "FENGYUN 1C DEB",
        "meta_object_id": "1999-025BCN",
        "meta_epoch": "2025-12-21T17:12:52.158240",
        "meta_mean_motion": 14.35453176,
        "meta_eccentricity": 0.0049599,
        "meta_inclination": 98.9438,
        "meta_ra_of_asc_node": 261.0028,
        "meta_arg_of_pericenter": 265.2504,
        "meta_mean_anomaly": 150.5306,
        "meta_ephemeris_type": 0,
        "meta_classification_type": "U",
        "meta_norad_cat_id": 30996,
        "meta_element_set_no": 999,
        "meta_rev_at_epoch": 97692,
        "meta_bstar": 0.00068073,
        "meta_mean_motion_dot": 1.936e-05,
        "meta_mean_motion_ddot": 0,
        "tle_line1": "1 30996U 99025BCN 25355.71727035  .00001936  00000+0  68073-3 0  9999",
        "tle_line2": "2 30996  98.9438 261.0028 0049599 265.2504 150.5306 14.35453176976921"
      },
      "geometry": {
        "type": "Point",
        "coordinates": [
          -107.2335350469425,
          44.67113116404038
        ]
      }
    },
    {
      "type": "Feature",
      "properties": {
        "norad_id": 30998,
        "name": "FENGYUN 1C DEB",
        "group": "fengyun-1c-debris",
        "lat": 44.21822906698939,
        "lon": -90.97923662241931,
        "alt_km": 720.6696597234322,
        "timestamp": "2025-12-22T09:53:37.681403+00:00",
        "meta_object_name": "FENGYUN 1C DEB",
        "meta_object_id": "1999-025BCQ",
        "meta_epoch": "2025-12-22T04:26:12.203808",
        "meta_mean_motion": 14.48050479,
        "meta_eccentricity": 0.0012809,
        "meta_inclination": 98.829,
        "meta_ra_of_asc_node": 80.0844,
        "meta_arg_of_pericenter": 169.5699,
        "meta_mean_anomaly": 220.9049,
        "meta_ephemeris_type": 0,
        "meta_classification_type": "U",
        "meta_norad_cat_id": 30998,
        "meta_element_set_no": 999,
        "meta_rev_at_epoch": 97327,
        "meta_bstar": 0.002488,
        "meta_mean_motion_dot": 9.222e-05,
        "meta_mean_motion_ddot": 0,
        "tle_line1": "1 30998U 99025BCQ 25356.18486347  .00009222  00000+0  24880-2 0  9994",
        "tle_line2": "2 30998  98.8290  80.0844 0012809 169.5699 220.9049 14.48050479973272"
      },
      "geometry": {
        "type": "Point",
        "coordinates": [
          -90.97923662241931,
          44.21822906698939
        ]
      }
    },
    {
      "type": "Feature",
      "properties": {
        "norad_id": 30999,
        "name": "FENGYUN 1C DEB",
        "group": "fengyun-1c-debris",
        "lat": -70.69419883213318,
        "lon": -36.14965988833988,
        "alt_km": 659.7807777287999,
        "timestamp": "2025-12-22T09:53:37.681413+00:00",
        "meta_object_name": "FENGYUN 1C DEB",
        "meta_object_id": "1999-025BCR",
        "meta_epoch": "2025-12-21T17:54:35.548992",
        "meta_mean_motion": 14.58463021,
        "meta_eccentricity": 0.0112703,
        "meta_inclination": 99.0909,
        "meta_ra_of_asc_node": 170.3208,
        "meta_arg_of_pericenter": 310.5415,
        "meta_mean_anomaly": 48.6008,
        "meta_ephemeris_type": 0,
        "meta_classification_type": "U",
        "meta_norad_cat_id": 30999,
        "meta_element_set_no": 999,
        "meta_rev_at_epoch": 98962,
        "meta_bstar": 0.00046079,
        "meta_mean_motion_dot": 2.272e-05,
        "meta_mean_motion_ddot": 0,
        "tle_line1": "1 30999U 99025BCR 25355.74624478  .00002272  00000+0  46079-3 0  9998",
        "tle_line2": "2 30999  99.0909 170.3208 0112703 310.5415  48.6008 14.58463021989626"
      },
      "geometry": {
        "type": "Point",
        "coordinates": [
          -36.14965988833988,
          -70.69419883213318
        ]
      }
    },
    {
      "type": "Feature",
      "properties": {
        "norad_id": 31000,
        "name": "FENGYUN 1C DEB",
        "group": "fengyun-1c-debris",
        "lat": -5.238225629808701,
        "lon": 24.22717686543994,
        "alt_km": 776.0705802348284,
        "timestamp": "2025-12-22T09:53:37.681423+00:00",
        "meta_object_name": "FENGYUN 1C DEB",
        "meta_object_id": "1999-025BCS",
        "meta_epoch": "2025-12-17T13:05:26.702016",
        "meta_mean_motion": 14.09652447,
        "meta_eccentricity": 0.01651917,
        "meta_inclination": 97.566,
        "meta_ra_of_asc_node": 19.4331,
        "meta_arg_of_pericenter": 52.2814,
        "meta_mean_anomaly": 100.2146,
        "meta_ephemeris_type": 0,
        "meta_classification_type": "U",
        "meta_norad_cat_id": 31000,
        "meta_element_set_no": 999,
        "meta_rev_at_epoch": 70024,
        "meta_bstar": 0.00053497673,
        "meta_mean_motion_dot": 1.032e-05,
        "meta_mean_motion_ddot": 0,
        "tle_line1": "1 31000U 99025BCS 25351.54544794  .00001032  00000+0  53498-3 0  9994",
        "tle_line2": "2 31000  97.5660  19.4331 0165191  52.2814 100.2146 14.09652447700244"
      },
      "geometry": {
        "type": "Point",
        "coordinates": [
          24.22717686543994,
          -5.238225629808701
        ]
      }
    },
    {
      "type": "Feature",
      "properties": {
        "norad_id": 31001,
        "name": "FENGYUN 1C DEB",
        "group": "fengyun-1c-debris",
        "lat": -21.55162582821665,
        "lon": 46.4457164531474,
        "alt_km": 730.211626572448,
        "timestamp": "2025-12-22T09:53:37.681433+00:00",
        "meta_object_name": "FENGYUN 1C DEB",
        "meta_object_id": "1999-025BCT",
        "meta_epoch": "2025-12-21T03:01:06.477888",
        "meta_mean_motion": 14.42880653,
        "meta_eccentricity": 0.01471177,
        "meta_inclination": 99.2718,
        "meta_ra_of_asc_node": 228.7462,
        "meta_arg_of_pericenter": 127.9463,
        "meta_mean_anomaly": 233.5125,
        "meta_ephemeris_type": 0,
        "meta_classification_type": "U",
        "meta_norad_cat_id": 31001,
        "meta_element_set_no": 999,
        "meta_rev_at_epoch": 98327,
        "meta_bstar": 0.00022560539,
        "meta_mean_motion_dot": 8.02e-06,
        "meta_mean_motion_ddot": 0,
        "tle_line1": "1 31001U 99025BCT 25355.12576942  .00000802  00000+0  22561-3 0  9994",
        "tle_line2": "2 31001  99.2718 228.7462 0147117 127.9463 233.5125 14.42880653983278"
      },
      "geometry": {
        "type": "Point",
        "coordinates": [
          46.4457164531474,
          -21.55162582821665
        ]
      }
    },
    {
      "type": "Feature",
      "properties": {
        "norad_id": 31002,
        "name": "FENGYUN 1C DEB",
        "group": "fengyun-1c-debris",
        "lat": 15.519205390060803,
        "lon": -169.4290518052275,
        "alt_km": 962.9687854068825,
        "timestamp": "2025-12-22T09:53:37.681443+00:00",
        "meta_object_name": "FENGYUN 1C DEB",
        "meta_object_id": "1999-025BCU",
        "meta_epoch": "2025-12-20T21:37:46.056000",
        "meta_mean_motion": 13.9920967,
        "meta_eccentricity": 0.0098565,
        "meta_inclination": 98.885,
        "meta_ra_of_asc_node": 6.6158,
        "meta_arg_of_pericenter": 325.1028,
        "meta_mean_anomaly": 152.4938,
        "meta_ephemeris_type": 0,
        "meta_classification_type": "U",
        "meta_norad_cat_id": 31002,
        "meta_element_set_no": 999,
        "meta_rev_at_epoch": 95719,
        "meta_bstar": 0.00023571,
        "meta_mean_motion_dot": 3.13e-06,
        "meta_mean_motion_ddot": 0,
        "tle_line1": "1 31002U 99025BCU 25354.90122750  .00000313  00000+0  23571-3 0  9993",
        "tle_line2": "2 31002  98.8850   6.6158 0098565 325.1028 152.4938 13.99209670957195"
      },
      "geometry": {
        "type": "Point",
        "coordinates": [
          -169.4290518052275,
          15.519205390060803
        ]
      }
    },
    {
      "type": "Feature",
      "properties": {
        "norad_id": 31003,
        "name": "FENGYUN 1C DEB",
        "group": "fengyun-1c-debris",
        "lat": -32.215245090605386,
        "lon": 78.90188027861316,
        "alt_km": 838.5495009643155,
        "timestamp": "2025-12-22T09:53:37.681453+00:00",
        "meta_object_name": "FENGYUN 1C DEB",
        "meta_object_id": "1999-025BCV",
        "meta_epoch": "2025-12-20T04:06:45.999936",
        "meta_mean_motion": 14.24738155,
        "meta_eccentricity": 0.00419876,
        "meta_inclination": 98.8429,
        "meta_ra_of_asc_node": 71.0165,
        "meta_arg_of_pericenter": 193.6229,
        "meta_mean_anomaly": 166.382,
        "meta_ephemeris_type": 0,
        "meta_classification_type": "U",
        "meta_norad_cat_id": 31003,
        "meta_element_set_no": 999,
        "meta_rev_at_epoch": 96615,
        "meta_bstar": 0.00091425711,
        "meta_mean_motion_dot": 2.104e-05,
        "meta_mean_motion_ddot": 0,
        "tle_line1": "1 31003U 99025BCV 25354.17136574  .00002104  00000+0  91426-3 0  9996",
        "tle_line2": "2 31003  98.8429  71.0165 0041987 193.6229 166.3820 14.24738155966153"
      },
      "geometry": {
        "type": "Point",
        "coordinates": [
          78.90188027861316,
          -32.215245090605386
        ]
      }
    }
  ]
}